[{"OBJECT_NAME":"ONEWEB-0676","OBJECT_ID":"2023-068C","EPOCH":"2026-03-14T12:23:57.260544","MEAN_MOTION":13.16595175,"ECCENTRICITY":0.00013721,"INCLINATION":87.9006,"RA_OF_ASC_NODE":247.604,"ARG_OF_PERICENTER":103.2036,"MEAN_ANOMALY":256.9248,"EPHEMERIS_TYPE":0,"CLASSIFICATION_TYPE":"U","NORAD_CAT_ID":56712,"ELEMENT_SET_NO":999,"REV_AT_EPOCH":13924,"BSTAR":8.5704205e-5,"MEAN_MOTION_DOT":4.6e-7,"MEAN_MOTION_DDOT":0},{"OBJECT_NAME":"ONEWEB-0677","OBJECT_ID":"2023-068D","EPOCH":"2026-03-14T13:35:45.845376","MEAN_MOTION":13.20773499,"ECCENTRICITY":0.000145,"INCLINATION":87.9164,"RA_OF_ASC_NODE":293.3294,"ARG_OF_PERICENTER":80.6345,"MEAN_ANOMALY":279.4952,"EPHEMERIS_TYPE":0,"CLASSIFICATION_TYPE":"U","NORAD_CAT_ID":56713,"ELEMENT_SET_NO":999,"REV_AT_EPOCH":13731,"BSTAR":5.2670438e-5,"MEAN_MOTION_DOT":3.4e-7,"MEAN_MOTION_DDOT":0},{"OBJECT_NAME":"ONEWEB-0678","OBJECT_ID":"2023-068E","EPOCH":"2026-03-14T13:04:20.130816","MEAN_MOTION":13.15548174,"ECCENTRICITY":0.00017316,"INCLINATION":87.8942,"RA_OF_ASC_NODE":278.0836,"ARG_OF_PERICENTER":99.5812,"MEAN_ANOMALY":260.5514,"EPHEMERIS_TYPE":0,"CLASSIFICATION_TYPE":"U","NORAD_CAT_ID":56714,"ELEMENT_SET_NO":999,"REV_AT_EPOCH":13684,"BSTAR":0.00036834243,"MEAN_MOTION_DOT":1.51e-6,"MEAN_MOTION_DDOT":0},{"OBJECT_NAME":"ONEWEB-0679","OBJECT_ID":"2023-068F","EPOCH":"2026-03-14T13:14:07.010592","MEAN_MOTION":13.165939,"ECCENTRICITY":0.0001275,"INCLINATION":87.9017,"RA_OF_ASC_NODE":247.5832,"ARG_OF_PERICENTER":76.8157,"MEAN_ANOMALY":283.3116,"EPHEMERIS_TYPE":0,"CLASSIFICATION_TYPE":"U","NORAD_CAT_ID":56715,"ELEMENT_SET_NO":999,"REV_AT_EPOCH":13927,"BSTAR":0.00024349695,"MEAN_MOTION_DOT":1.06e-6,"MEAN_MOTION_DDOT":0},{"OBJECT_NAME":"ONEWEB-0680","OBJECT_ID":"2023-068G","EPOCH":"2026-03-14T13:14:42.558144","MEAN_MOTION":13.2182725,"ECCENTRICITY":0.00016229,"INCLINATION":87.9176,"RA_OF_ASC_NODE":262.8316,"ARG_OF_PERICENTER":73.5795,"MEAN_ANOMALY":286.5517,"EPHEMERIS_TYPE":0,"CLASSIFICATION_TYPE":"U","NORAD_CAT_ID":56716,"ELEMENT_SET_NO":999,"REV_AT_EPOCH":13859,"BSTAR":5.3040253e-5,"MEAN_MOTION_DOT":3.5e-7,"MEAN_MOTION_DDOT":0},{"OBJECT_NAME":"ONEWEB-0681","OBJECT_ID":"2023-068H","EPOCH":"2026-03-14T12:45:04.885920","MEAN_MOTION":13.21826165,"ECCENTRICITY":8.451e-5,"INCLINATION":87.9162,"RA_OF_ASC_NODE":262.8438,"ARG_OF_PERICENTER":123.1866,"MEAN_ANOMALY":236.9349,"EPHEMERIS_TYPE":0,"CLASSIFICATION_TYPE":"U","NORAD_CAT_ID":56717,"ELEMENT_SET_NO":999,"REV_AT_EPOCH":13858,"BSTAR":5.9984978e-5,"MEAN_MOTION_DOT":3.8e-7,"MEAN_MOTION_DDOT":0},{"OBJECT_NAME":"ONEWEB-0682","OBJECT_ID":"2023-068J","EPOCH":"2026-03-14T13:41:42.952128","MEAN_MOTION":13.1569123,"ECCENTRICITY":0.00012165,"INCLINATION":87.8972,"RA_OF_ASC_NODE":278.0887,"ARG_OF_PERICENTER":86.8261,"MEAN_ANOMALY":273.3009,"EPHEMERIS_TYPE":0,"CLASSIFICATION_TYPE":"U","NORAD_CAT_ID":56718,"ELEMENT_SET_NO":999,"REV_AT_EPOCH":13701,"BSTAR":0.045118275,"MEAN_MOTION_DOT":0.00017065,"MEAN_MOTION_DDOT":0},{"OBJECT_NAME":"ONEWEB-0683","OBJECT_ID":"2023-068K","EPOCH":"2026-03-14T14:12:47.210112","MEAN_MOTION":13.15548211,"ECCENTRICITY":0.00016973,"INCLINATION":87.8943,"RA_OF_ASC_NODE":278.0733,"ARG_OF_PERICENTER":80.5105,"MEAN_ANOMALY":279.6217,"EPHEMERIS_TYPE":0,"CLASSIFICATION_TYPE":"U","NORAD_CAT_ID":56719,"ELEMENT_SET_NO":999,"REV_AT_EPOCH":13698,"BSTAR":-0.00027876195,"MEAN_MOTION_DOT":-9.2e-7,"MEAN_MOTION_DDOT":0},{"OBJECT_NAME":"ONEWEB-0684","OBJECT_ID":"2023-068L","EPOCH":"2026-03-14T14:24:11.960352","MEAN_MOTION":13.15547976,"ECCENTRICITY":0.00028413,"INCLINATION":87.894,"RA_OF_ASC_NODE":278.0642,"ARG_OF_PERICENTER":106.6978,"MEAN_ANOMALY":253.4464,"EPHEMERIS_TYPE":0,"CLASSIFICATION_TYPE":"U","NORAD_CAT_ID":56720,"ELEMENT_SET_NO":999,"REV_AT_EPOCH":13681,"BSTAR":-0.00023063097,"MEAN_MOTION_DOT":-7.4e-7,"MEAN_MOTION_DDOT":0},{"OBJECT_NAME":"ONEWEB-0686","OBJECT_ID":"2023-068M","EPOCH":"2026-03-14T12:17:06.486432","MEAN_MOTION":13.16594597,"ECCENTRICITY":0.00019524,"INCLINATION":87.9001,"RA_OF_ASC_NODE":247.6293,"ARG_OF_PERICENTER":91.7245,"MEAN_ANOMALY":268.411,"EPHEMERIS_TYPE":0,"CLASSIFICATION_TYPE":"U","NORAD_CAT_ID":56721,"ELEMENT_SET_NO":999,"REV_AT_EPOCH":13925,"BSTAR":-0.00016908925,"MEAN_MOTION_DOT":-5.2e-7,"MEAN_MOTION_DDOT":0},{"OBJECT_NAME":"ONEWEB-0694","OBJECT_ID":"2023-068N","EPOCH":"2026-03-14T10:36:48.350592","MEAN_MOTION":13.16593761,"ECCENTRICITY":0.00016811,"INCLINATION":87.9017,"RA_OF_ASC_NODE":247.589,"ARG_OF_PERICENTER":80.8679,"MEAN_ANOMALY":279.2642,"EPHEMERIS_TYPE":0,"CLASSIFICATION_TYPE":"U","NORAD_CAT_ID":56722,"ELEMENT_SET_NO":999,"REV_AT_EPOCH":13930,"BSTAR":0.00011480479,"MEAN_MOTION_DOT":5.7e-7,"MEAN_MOTION_DDOT":0},{"OBJECT_NAME":"ONEWEB-0696","OBJECT_ID":"2023-068P","EPOCH":"2026-03-14T13:22:34.502592","MEAN_MOTION":13.15549699,"ECCENTRICITY":0.00019123,"INCLINATION":87.8933,"RA_OF_ASC_NODE":278.118,"ARG_OF_PERICENTER":103.4008,"MEAN_ANOMALY":256.7336,"EPHEMERIS_TYPE":0,"CLASSIFICATION_TYPE":"U","NORAD_CAT_ID":56723,"ELEMENT_SET_NO":999,"REV_AT_EPOCH":13692,"BSTAR":0.00048641246,"MEAN_MOTION_DOT":1.96e-6,"MEAN_MOTION_DDOT":0},{"OBJECT_NAME":"ONEWEB-0703","OBJECT_ID":"2023-068Q","EPOCH":"2026-03-14T13:36:16.490592","MEAN_MOTION":13.1554821,"ECCENTRICITY":0.00018047,"INCLINATION":87.8934,"RA_OF_ASC_NODE":278.0971,"ARG_OF_PERICENTER":123.5585,"MEAN_ANOMALY":236.5718,"EPHEMERIS_TYPE":0,"CLASSIFICATION_TYPE":"U","NORAD_CAT_ID":56724,"ELEMENT_SET_NO":999,"REV_AT_EPOCH":13681,"BSTAR":0.00018831152,"MEAN_MOTION_DOT":8.4e-7,"MEAN_MOTION_DDOT":0},{"OBJECT_NAME":"ONEWEB-0721","OBJECT_ID":"2023-068R","EPOCH":"2026-03-14T13:34:36.979392","MEAN_MOTION":13.22462473,"ECCENTRICITY":0.00019224,"INCLINATION":86.6749,"RA_OF_ASC_NODE":115.731,"ARG_OF_PERICENTER":98.233,"MEAN_ANOMALY":261.9021,"EPHEMERIS_TYPE":0,"CLASSIFICATION_TYPE":"U","NORAD_CAT_ID":56725,"ELEMENT_SET_NO":999,"REV_AT_EPOCH":14543,"BSTAR":-2.7506063e-5,"MEAN_MOTION_DOT":3.0e-8,"MEAN_MOTION_DDOT":0},{"OBJECT_NAME":"ONEWEB-0015","OBJECT_ID":"2024-188A","EPOCH":"2026-03-14T15:00:13.954464","MEAN_MOTION":13.11418193,"ECCENTRICITY":0.00013382,"INCLINATION":87.887,"RA_OF_ASC_NODE":39.8941,"ARG_OF_PERICENTER":70.7063,"MEAN_ANOMALY":289.421,"EPHEMERIS_TYPE":0,"CLASSIFICATION_TYPE":"U","NORAD_CAT_ID":61594,"ELEMENT_SET_NO":999,"REV_AT_EPOCH":7206,"BSTAR":-0.0013393423,"MEAN_MOTION_DOT":-4.62e-6,"MEAN_MOTION_DDOT":0},{"OBJECT_NAME":"ONEWEB-0687","OBJECT_ID":"2024-188B","EPOCH":"2026-03-14T14:44:36.737376","MEAN_MOTION":13.1764825,"ECCENTRICITY":0.00018302,"INCLINATION":87.9149,"RA_OF_ASC_NODE":24.6635,"ARG_OF_PERICENTER":63.8029,"MEAN_ANOMALY":296.3291,"EPHEMERIS_TYPE":0,"CLASSIFICATION_TYPE":"U","NORAD_CAT_ID":61595,"ELEMENT_SET_NO":999,"REV_AT_EPOCH":7344,"BSTAR":0.00010676205,"MEAN_MOTION_DOT":5.4e-7,"MEAN_MOTION_DDOT":0},{"OBJECT_NAME":"ONEWEB-0688","OBJECT_ID":"2024-188C","EPOCH":"2026-03-14T13:36:34.150752","MEAN_MOTION":13.17650182,"ECCENTRICITY":8.967e-5,"INCLINATION":87.9149,"RA_OF_ASC_NODE":24.6723,"ARG_OF_PERICENTER":44.2343,"MEAN_ANOMALY":315.886,"EPHEMERIS_TYPE":0,"CLASSIFICATION_TYPE":"U","NORAD_CAT_ID":61596,"ELEMENT_SET_NO":999,"REV_AT_EPOCH":7343,"BSTAR":0.00016540361,"MEAN_MOTION_DOT":7.7e-7,"MEAN_MOTION_DDOT":0}]
