ONEWEB-0676             
1 56712U 23068C   26073.51663496  .00000046  00000+0  85704-4 0  9995
2 56712  87.9006 247.6040 0001372 103.2036 256.9248 13.16595175139242
ONEWEB-0677             
1 56713U 23068D   26073.56650284  .00000034  00000+0  52670-4 0  9995
2 56713  87.9164 293.3294 0001450  80.6345 279.4952 13.20773499137315
ONEWEB-0678             
1 56714U 23068E   26073.54467744  .00000151  00000+0  36834-3 0  9994
2 56714  87.8942 278.0836 0001731  99.5812 260.5514 13.15548174136847
ONEWEB-0679             
1 56715U 23068F   26073.55147003  .00000106  00000+0  24350-3 0  9999
2 56715  87.9017 247.5832 0001275  76.8157 283.3116 13.16593900139271
ONEWEB-0680             
1 56716U 23068G   26073.55188146  .00000035  00000+0  53040-4 0  9993
2 56716  87.9176 262.8316 0001622  73.5795 286.5517 13.21827250138591
ONEWEB-0681             
1 56717U 23068H   26073.53130655  .00000038  00000+0  59985-4 0  9991
2 56717  87.9162 262.8438 0000845 123.1866 236.9349 13.21826165138584
ONEWEB-0682             
1 56718U 23068J   26073.57063602  .00017065  00000+0  45118-1 0  9991
2 56718  87.8972 278.0887 0001216  86.8261 273.3009 13.15691230137018
ONEWEB-0683             
1 56719U 23068K   26073.59221308 -.00000092  00000+0 -27876-3 0  9990
2 56719  87.8943 278.0733 0001697  80.5105 279.6217 13.15548211136983
ONEWEB-0684             
1 56720U 23068L   26073.60013843 -.00000074  00000+0 -23063-3 0  9991
2 56720  87.8940 278.0642 0002841 106.6978 253.4464 13.15547976136814
ONEWEB-0686             
1 56721U 23068M   26073.51188063 -.00000052  00000+0 -16909-3 0  9996
2 56721  87.9001 247.6293 0001952  91.7245 268.4110 13.16594597139258
ONEWEB-0694             
1 56722U 23068N   26073.44222628  .00000057  00000+0  11480-3 0  9997
2 56722  87.9017 247.5890 0001681  80.8679 279.2642 13.16593761139305
ONEWEB-0696             
1 56723U 23068P   26073.55734378  .00000196  00000+0  48641-3 0  9993
2 56723  87.8933 278.1180 0001912 103.4008 256.7336 13.15549699136924
ONEWEB-0703             
1 56724U 23068Q   26073.56685753  .00000084  00000+0  18831-3 0  9991
2 56724  87.8934 278.0971 0001804 123.5585 236.5718 13.15548210136812
ONEWEB-0721             
1 56725U 23068R   26073.56570578  .00000003  00000+0 -27506-4 0  9992
2 56725  86.6749 115.7310 0001922  98.2330 261.9021 13.22462473145436
ONEWEB-0015             
1 61594U 24188A   26073.62516151 -.00000462  00000+0 -13393-2 0  9997
2 61594  87.8870  39.8941 0001338  70.7063 289.4210 13.11418193 72060
ONEWEB-0687             
1 61595U 24188B   26073.61431409  .00000054  00000+0  10676-3 0  9996
2 61595  87.9149  24.6635 0001830  63.8029 296.3291 13.17648250 73449
ONEWEB-0688             
1 61596U 24188C   26073.56706193  .00000077  00000+0  16540-3 0  9997
2 61596  87.9149  24.6723 0000896  44.2343 315.8860 13.17650182 73436
